{"type": "FeatureCollection", "features": [{"type": "Feature", "geometry": {"type": "MultiPolygon", "coordinates": [[[[-49.1298, -24.6819], [-49.1579, -24.6719], [-49.1857, -24.6728], [-49.2079, -24.7009], [-49.2781, -24.693], [-49.312, -24.6635], [-49.3036, -24.5969], [-49.316, -24.5555], [-49.2799, -24.5359], [-49.2957, -24.5003], [-49.2453, -24.4651], [-49.2505, -24.4454], [-49.2524, -24.4339], [-49.2535, -24.405], [-49.2011, -24.3451], [-49.2542, -24.3179], [-49.2869, -24.3026], [-49.3054, -24.2514], [-49.3507, -24.2208], [-49.3366, -24.1376], [-49.4087, -24.1069], [-49.4298, -24.0687], [-49.4575, -24.0495], [-49.4923, -23.9934], [-49.5223, -23.9166], [-49.5358, -23.9282], [-49.587, -23.8889], [-49.608, -23.8394], [-49.5727, -23.827], [-49.5597, -23.7936], [-49.5673, -23.7368], [-49.5492, -23.704], [-49.5747, -23.676], [-49.6021, -23.6521], [-49.621, -23.6111], [-49.6028, -23.584], [-49.6002, -23.5356], [-49.6242, -23.5233], [-49.6214, -23.4933], [-49.5981, -23.4582], [-49.5818, -23.429], [-49.6025, -23.4085], [-49.5954, -23.3671], [-49.6379, -23.3495], [-49.6217, -23.3319], [-49.6271, -23.2818], [-49.6538, -23.212], [-49.6777, -23.1749], [-49.7165, -23.1484], [-49.7256, -23.1094], [-49.7892, -23.1033], [-49.8095, -23.0892], [-49.8194, -23.077], [-49.8337, -23.0659], [-49.8674, -23.0717], [-49.9116, -23.0511], [-49.9017, -22.9993], [-49.9545, -22.9784], [-49.9725, -22.9585], [-49.9742, -22.9545], [-49.9614, -22.9309], [-49.9862, -22.8975], [-50.0146, -22.9113], [-50.0528, -22.9055], [-50.1331, -22.9399], [-50.2039, -22.9528], [-50.2432, -22.951], [-50.2756, -22.9316], [-50.3402, -22.9481], [-50.3592, -22.9161], [-50.4164, -22.9128], [-50.4257, -22.9442], [-50.5268, -22.9348], [-50.53, -22.9191], [-50.5772, -22.904], [-50.6038, -22.9232], [-50.6373, -22.9069], [-50.6821, -22.9062], [-50.7098, -22.9534], [-50.7959, -22.9512], [-50.7931, -22.9051], [-50.8236, -22.8661], [-50.8424, -22.8314], [-50.8953, -22.7943], [-50.9277, -22.7977], [-50.9787, -22.7826], [-51.0044, -22.7937], [-51.0576, -22.7661], [-51.1279, -22.76], [-51.176, -22.7388], [-51.2137, -22.7237], [-51.2652, -22.6677], [-51.2982, -22.6735], [-51.3331, -22.6671], [-51.3736, -22.6581], [-51.402, -22.6679], [-51.4464, -22.653], [-51.475, -22.6792], [-51.5172, -22.69], [-51.5596, -22.6972], [-51.6279, -22.6582], [-51.6305, -22.6579], [-51.7182, -22.669], [-51.733, -22.6286], [-51.7716, -22.6141], [-51.8558, -22.6317], [-51.8902, -22.6132], [-51.9015, -22.6019], [-51.9405, -22.5673], [-52.0284, -22.5395], [-52.0329, -22.5392], [-52.1092, -22.5163], [-52.1356, -22.5269], [-52.1523, -22.5692], [-52.1567, -22.6447], [-52.1828, -22.6554], [-52.2226, -22.6755], [-52.2281, -22.6425], [-52.2504, -22.6154], [-52.29, -22.6282], [-52.3004, -22.6354], [-52.3805, -22.6265], [-52.4214, -22.6106], [-52.4457, -22.6083], [-52.4988, -22.6342], [-52.5378, -22.616], [-52.5893, -22.5661], [-52.6971, -22.627], [-52.7643, -22.6086], [-52.7829, -22.6021], [-52.8154, -22.597], [-52.8584, -22.608], [-52.9247, -22.5656], [-52.9724, -22.5705], [-53.0117, -22.5988], [-53.0385, -22.6184], [-53.0915, -22.6448], [-53.1052, -22.6219], [-53.1279, -22.6523], [-53.1854, -22.7187], [-53.24, -22.7335], [-53.3274, -22.7646], [-53.3798, -22.8044], [-53.4104, -22.8139], [-53.4848, -22.8639], [-53.5468, -22.8901], [-53.5708, -22.9285], [-53.6074, -22.9513], [-53.634, -23.0034], [-53.6366, -23.125], [-53.6993, -23.2349], [-53.7149, -23.2834], [-53.7622, -23.3593], [-53.9321, -23.4459], [-53.9602, -23.4434], [-53.9874, -23.4666], [-54.0306, -23.6282], [-54.0511, -23.6872], [-54.0519, -23.7211], [-54.0757, -23.7645], [-54.0836, -23.8055], [-54.084, -23.865], [-54.0805, -23.8913], [-54.1018, -23.952], [-54.1403, -23.9884], [-54.169, -23.999], [-54.2495, -24.0559], [-54.2862, -24.0682], [-54.3342, -24.1164], [-54.3456, -24.157], [-54.3275, -24.1964], [-54.3226, -24.2517], [-54.2774, -24.2914], [-54.2578, -24.3553], [-54.2616, -24.375], [-54.2956, -24.4276], [-54.3265, -24.4652], [-54.3361, -24.508], [-54.3185, -24.5907], [-54.3269, -24.6595], [-54.3323, -24.6945], [-54.3899, -24.7773], [-54.395, -24.8113], [-54.437, -24.9414], [-54.4572, -25.0393], [-54.4595, -25.1021], [-54.4249, -25.1533], [-54.4478, -25.1688], [-54.4736, -25.2115], [-54.4912, -25.278], [-54.5254, -25.3315], [-54.5864, -25.3966], [-54.6191, -25.4507], [-54.6037, -25.4825], [-54.5935, -25.5922], [-54.5529, -25.5882], [-54.5361, -25.6207], [-54.5025, -25.6144], [-54.4253, -25.6589], [-54.3971, -25.6397], [-54.3888, -25.5999], [-54.3455, -25.6049], [-54.3289, -25.5719], [-54.2963, -25.5576], [-54.2579, -25.5936], [-54.2031, -25.5805], [-54.1971, -25.5351], [-54.1631, -25.5426], [-54.144, -25.521], [-54.1157, -25.4985], [-54.0966, -25.5214], [-54.1198, -25.5533], [-54.0453, -25.5852], [-54.0108, -25.5665], [-53.9912, -25.5861], [-53.9609, -25.6291], [-53.9318, -25.6226], [-53.8625, -25.6586], [-53.8498, -25.6908], [-53.8785, -25.7069], [-53.8488, -25.7412], [-53.8427, -25.7707], [-53.8219, -25.7993], [-53.8492, -25.8351], [-53.8336, -25.8954], [-53.8189, -25.9123], [-53.8422, -25.9322], [-53.819, -25.9764], [-53.7716, -26.0315], [-53.7342, -26.0428], [-53.7406, -26.1178], [-53.7103, -26.1306], [-53.6721, -26.1762], [-53.6514, -26.2068], [-53.639, -26.2508], [-53.5843, -26.2591], [-53.5573, -26.2871], [-53.4958, -26.3028], [-53.4309, -26.2821], [-53.4308, -26.282], [-53.4304, -26.2819], [-53.3761, -26.2416], [-53.3423, -26.2491], [-53.3044, -26.2584], [-53.2836, -26.2458], [-53.2644, -26.2893], [-53.1693, -26.3481], [-53.1602, -26.3506], [-53.0932, -26.392], [-53.028, -26.3702], [-52.9935, -26.3477], [-52.9377, -26.3622], [-52.9083, -26.3594], [-52.8469, -26.3444], [-52.7628, -26.3536], [-52.7378, -26.3422], [-52.7006, -26.358], [-52.6802, -26.3527], [-52.645, -26.3809], [-52.5958, -26.4161], [-52.557, -26.4078], [-52.5232, -26.3996], [-52.4636, -26.4396], [-52.4426, -26.4381], [-52.4031, -26.4282], [-52.3796, -26.4386], [-52.3044, -26.4407], [-52.277, -26.4612], [-52.2298, -26.467], [-52.1863, -26.4451], [-52.1588, -26.4662], [-52.1116, -26.475], [-52.0814, -26.5251], [-52.0291, -26.5469], [-52.0088, -26.5666], [-51.9003, -26.5793], [-51.8779, -26.5976], [-51.824, -26.5819], [-51.7839, -26.5881], [-51.7376, -26.573], [-51.6927, -26.5805], [-51.6585, -26.5654], [-51.6325, -26.5872], [-51.5356, -26.5918], [-51.5121, -26.5817], [-51.4954, -26.5874], [-51.4549, -26.6407], [-51.4115, -26.7171], [-51.3911, -26.6632], [-51.347, -26.6486], [-51.2834, -26.6536], [-51.2389, -26.6279], [-51.2221, -26.5937], [-51.2281, -26.5546], [-51.2732, -26.4983], [-51.2532, -26.4621], [-51.2929, -26.4341], [-51.2704, -26.3869], [-51.2522, -26.3515], [-51.2029, -26.2982], [-51.1484, -26.2788], [-51.1018, -26.2727], [-51.0774, -26.2312], [-51.0568, -26.2439], [-50.9915, -26.235], [-50.9713, -26.2613], [-50.9436, -26.2438], [-50.9095, -26.2494], [-50.8997, -26.2893], [-50.8469, -26.2664], [-50.7999, -26.2313], [-50.7627, -26.222], [-50.7459, -26.2468], [-50.7156, -26.2446], [-50.7299, -26.2034], [-50.7033, -26.188], [-50.6975, -26.1818], [-50.6828, -26.1536], [-50.6502, -26.1325], [-50.6562, -26.1008], [-50.6285, -26.0628], [-50.5948, -26.0704], [-50.5535, -26.0594], [-50.5509, -26.0383], [-50.5133, -26.0261], [-50.4609, -26.0263], [-50.4295, -26.063], [-50.3717, -26.0792], [-50.3657, -26.1121], [-50.3217, -26.1339], [-50.332, -26.0854], [-50.2685, -26.0428], [-50.2475, -26.0304], [-50.2223, -26.0602], [-50.1898, -26.07], [-50.1402, -26.0266], [-50.1242, -26.0508], [-49.9934, -26.0114], [-49.9341, -26.0189], [-49.8694, -26.0335], [-49.8638, -26.0547], [-49.8242, -26.0939], [-49.7486, -26.1246], [-49.6728, -26.1898], [-49.654, -26.1869], [-49.6031, -26.2267], [-49.5498, -26.2334], [-49.5017, -26.2199], [-49.4872, -26.1942], [-49.486, -26.1852], [-49.4292, -26.17], [-49.3807, -26.1567], [-49.3608, -26.1374], [-49.3217, -26.11], [-49.3002, -26.1113], [-49.2345, -26.0307], [-49.1675, -26.0007], [-49.0738, -26.0011], [-49.043, -26.0045], [-49.0295, -26.0046], [-49.0202, -26.0157], [-48.9683, -25.9867], [-48.9504, -25.99], [-48.9605, -25.9808], [-48.6821, -25.9837], [-48.5953, -25.9768], [-48.5496, -25.8523], [-48.4771, -25.7137], [-48.4362, -25.6494], [-48.4042, -25.614], [-48.3583, -25.5859], [-48.3199, -25.5866], [-48.2769, -25.5141], [-48.3097, -25.4933], [-48.2393, -25.4653], [-48.214, -25.473], [-48.1921, -25.4176], [-48.1623, -25.375], [-48.0961, -25.3089], [-48.0968, -25.2972], [-48.0235, -25.2309], [-48.113, -25.2509], [-48.1825, -25.205], [-48.1585, -25.1499], [-48.1816, -25.1338], [-48.2161, -25.0767], [-48.2086, -25.0319], [-48.2397, -24.9914], [-48.2696, -24.9975], [-48.2846, -25.0392], [-48.3512, -25.0365], [-48.3799, -24.9959], [-48.4119, -24.9804], [-48.474, -25.0126], [-48.4809, -25.037], [-48.5302, -25.1008], [-48.5563, -25.0843], [-48.5796, -25.0531], [-48.5981, -25.0033], [-48.5674, -24.9723], [-48.5664, -24.9168], [-48.5497, -24.8675], [-48.5677, -24.8488], [-48.5558, -24.8062], [-48.5183, -24.781], [-48.5019, -24.746], [-48.5381, -24.7262], [-48.5722, -24.6906], [-48.6166, -24.6687], [-48.675, -24.7018], [-48.7038, -24.6804], [-48.7771, -24.6957], [-48.8108, -24.675], [-48.8404, -24.665], [-48.9123, -24.674], [-48.9622, -24.6742], [-49.0103, -24.6544], [-49.1116, -24.6884], [-49.1298, -24.6819]]], [[[-53.6542, -25.3509], [-53.6251, -25.3464], [-53.6265, -25.3466], [-53.6542, -25.3509]]], [[[-53.3778, -23.2407], [-53.3781, -23.2409], [-53.3763, -23.2398], [-53.3778, -23.2407]]]]}, "properties": {"codarea": "41"}}]}