{"type": "FeatureCollection", "features": [{"type": "Feature", "geometry": {"type": "Polygon", "coordinates": [[[-53.7154, -24.5751], [-53.7315, -24.5772], [-53.7412, -24.5604], [-53.7695, -24.5504], [-53.7766, -24.5364], [-53.776, -24.5262], [-53.7833, -24.5194], [-53.7979, -24.5158], [-53.8057, -24.5077], [-53.8057, -24.501], [-53.8125, -24.4829], [-53.8288, -24.4684], [-53.8427, -24.4604], [-53.8455, -24.4551], [-53.8578, -24.4533], [-53.8635, -24.4573], [-53.8716, -24.4555], [-53.8817, -24.4675], [-53.8661, -24.4738], [-53.8605, -24.4817], [-53.858, -24.4918], [-53.8592, -24.5019], [-53.8542, -24.5115], [-53.8694, -24.522], [-53.8924, -24.5275], [-53.8999, -24.5188], [-53.9159, -24.5129], [-53.938, -24.5141], [-53.9529, -24.5044], [-53.9595, -24.5067], [-53.9499, -24.5184], [-53.951, -24.5223], [-53.9662, -24.5267], [-53.9591, -24.536], [-53.9459, -24.536], [-53.9473, -24.5493], [-53.9349, -24.5507], [-53.9316, -24.566], [-53.9222, -24.5655], [-53.9176, -24.5755], [-53.9224, -24.5804], [-53.9266, -24.5924], [-53.9365, -24.6052], [-53.9466, -24.61], [-53.9605, -24.6294], [-53.9583, -24.644], [-53.9609, -24.6502], [-53.9725, -24.652], [-53.9786, -24.6595], [-53.9876, -24.6644], [-53.9912, -24.6607], [-54.0052, -24.6585], [-54.0159, -24.6594], [-54.032, -24.6557], [-54.0415, -24.6746], [-54.0301, -24.6844], [-54.0323, -24.6993], [-54.0279, -24.707], [-54.0333, -24.7247], [-54.0294, -24.7408], [-54.0132, -24.7439], [-54.0163, -24.731], [-54.0031, -24.7257], [-53.9967, -24.7303], [-53.9879, -24.7231], [-53.9768, -24.7336], [-53.9636, -24.7285], [-53.9553, -24.7228], [-53.9545, -24.7136], [-53.9368, -24.7228], [-53.9243, -24.7175], [-53.8971, -24.73], [-53.9013, -24.7363], [-53.8966, -24.7425], [-53.8905, -24.733], [-53.8713, -24.7394], [-53.8541, -24.743], [-53.8366, -24.7513], [-53.8081, -24.7695], [-53.7958, -24.7957], [-53.7916, -24.8154], [-53.7834, -24.823], [-53.787, -24.8279], [-53.8224, -24.8549], [-53.8364, -24.8562], [-53.8443, -24.8642], [-53.8491, -24.8764], [-53.8434, -24.8859], [-53.8434, -24.894], [-53.8305, -24.9079], [-53.8223, -24.9061], [-53.8192, -24.9146], [-53.8064, -24.9131], [-53.8044, -24.9083], [-53.7785, -24.9069], [-53.7737, -24.9132], [-53.7666, -24.9139], [-53.7569, -24.9225], [-53.7444, -24.921], [-53.7418, -24.9346], [-53.7246, -24.9392], [-53.7113, -24.9349], [-53.6919, -24.941], [-53.6844, -24.9398], [-53.6768, -24.9422], [-53.6644, -24.9412], [-53.6489, -24.9349], [-53.6366, -24.9339], [-53.6356, -24.8816], [-53.625, -24.8709], [-53.6411, -24.8641], [-53.6546, -24.8678], [-53.6708, -24.8533], [-53.6783, -24.8406], [-53.6797, -24.8294], [-53.6925, -24.8315], [-53.6896, -24.8207], [-53.691, -24.8132], [-53.7005, -24.8059], [-53.7237, -24.7944], [-53.717, -24.7885], [-53.6968, -24.7867], [-53.6842, -24.7799], [-53.6688, -24.7934], [-53.6626, -24.7934], [-53.6579, -24.7859], [-53.6317, -24.7869], [-53.6262, -24.7936], [-53.6196, -24.795], [-53.6086, -24.8028], [-53.6058, -24.7999], [-53.5879, -24.8035], [-53.5744, -24.8032], [-53.563, -24.8145], [-53.5563, -24.8318], [-53.5441, -24.8385], [-53.5509, -24.8073], [-53.5598, -24.7767], [-53.5479, -24.7731], [-53.5369, -24.7605], [-53.5371, -24.7468], [-53.5373, -24.7442], [-53.596, -24.6895], [-53.7154, -24.5751]]]}, "properties": {"codarea": "4127700"}}]}